OBJECT_NAME,OBJECT_ID,EPOCH,MEAN_MOTION,ECCENTRICITY,INCLINATION,RA_OF_ASC_NODE,ARG_OF_PERICENTER,MEAN_ANOMALY,EPHEMERIS_TYPE,CLASSIFICATION_TYPE,NORAD_CAT_ID,ELEMENT_SET_NO,REV_AT_EPOCH,BSTAR,MEAN_MOTION_DOT,MEAN_MOTION_DDOT
QIANFAN-148,2026-108D,2026-06-27T02:22:32.551104,13.86346438,.0016986,89.0090,21.1483,76.5757,283.7306,0,U,69107,999,572,-.18568204E+1,-.2004668E-1,0
QIANFAN-149,2026-108E,2026-06-27T02:37:53.045472,13.84559313,.00200676,89.0092,21.1509,83.2542,277.0911,0,U,69108,999,572,-.17980375E+1,-.1871104E-1,0
QIANFAN-150,2026-108F,2026-06-27T01:20:58.719552,13.89114411,.00156342,89.0097,21.1448,64.5848,295.6941,0,U,69109,999,572,-.1646498E+1,-.1852156E-1,0
QIANFAN-151,2026-108G,2026-06-27T01:40:54.440256,13.87201168,.00149207,89.0096,21.1468,75.6444,284.6383,0,U,69110,999,572,-.18876169E+1,-.2063129E-1,0
QIANFAN-152,2026-108H,2026-06-27T01:08:42.941472,13.88128893,.00122219,89.0092,21.1418,77.6144,282.6395,0,U,69111,999,572,-.1806234E+1,-.2008975E-1,0
QIANFAN-153,2026-108J,2026-06-27T01:23:42.725760,13.85358956,.00193925,89.0091,21.1419,84.2587,276.0794,0,U,69112,999,572,-.1787491E+1,-.1904852E-1,0
QIANFAN-154,2026-108K,2026-06-27T02:50:17.937024,13.86034048,.00156572,89.0097,21.1351,75.0991,285.1913,0,U,69113,999,573,-.19094791E+1,-.2047194E-1,0
QIANFAN-155,2026-108L,2026-06-27T01:12:56.421792,13.86366314,.00150176,89.0096,21.1446,79.4021,280.8840,0,U,69114,999,572,-.1981528E+1,-.2130177E-1,0
QIANFAN-156,2026-108M,2026-06-27T01:56:57.382080,13.88868921,.0017334,89.0109,21.1320,62.9466,297.3473,0,U,69115,999,573,-.15678544E+1,-.1763137E-1,0
QIANFAN-157,2026-108N,2026-06-27T02:02:52.081728,13.93699536,.00202448,89.0097,21.1115,83.4070,276.9409,0,U,69116,999,574,-.13344046E+1,-.1640319E-1,0
QIANFAN-158,2026-108P,2026-06-27T01:05:54.913344,13.91779930,.00184445,89.0095,21.1235,69.5955,290.7198,0,U,69117,999,573,-.14970224E+1,-.1769859E-1,0
QIANFAN-159,2026-108Q,2026-06-27T03:04:41.263104,13.91258199,.0016469,89.0086,21.1151,79.9485,280.3547,0,U,69118,999,574,-.17569015E+1,-.2059525E-1,0
QIANFAN-160,2026-108R,2026-06-27T01:23:12.808896,13.89632102,.00134795,89.0098,21.1262,73.3264,286.9388,0,U,69119,999,573,-.17747245E+1,-.2024672E-1,0
QIANFAN-161,2026-108S,2026-06-27T02:07:53.196096,13.93323204,.00188908,89.0104,21.1137,78.7696,281.5601,0,U,69120,999,574,-.15458651E+1,-.1890099E-1,0
QIANFAN-162,2026-108T,2026-06-27T02:17:57.881184,13.92742923,.00182788,89.0097,21.1135,84.1419,276.1839,0,U,69121,999,574,-.17147475E+1,-.2062729E-1,0
SMILE,2026-109A,2026-06-07T09:11:54.544416,7.54049028,.3310191,69.9787,209.3069,288.5544,45.7342,0,U,69123,999,248,-.36778157E-3,-.41E-6,0
STARLINK-37726,2026-110A,2026-06-27T02:47:01.821984,15.48203212,.00047238,97.2839,14.4252,44.5618,315.6011,0,U,69124,999,713,-.75185929E-2,-.377125E-2,0
STARLINK-37722,2026-110B,2026-06-27T06:43:08.817888,15.33445174,.0002061,97.2853,14.5131,94.3062,265.8416,0,U,69125,999,715,.82808784E-3,.26755E-3,0
STARLINK-37715,2026-110C,2026-06-27T06:54:53.472960,15.33441931,.00014097,97.2846,14.5033,92.9306,267.2098,0,U,69126,999,715,.54509781E-3,.17562E-3,0
STARLINK-37706,2026-110D,2026-06-27T06:50:58.920288,15.33433676,.00013294,97.2847,14.5065,98.5064,261.6329,0,U,69127,999,715,.71932274E-3,.23211E-3,0
STARLINK-37723,2026-110E,2026-06-27T06:47:03.861312,15.33439233,.00019487,97.2849,14.5106,91.7407,268.4059,0,U,69128,999,715,.67387007E-3,.21739E-3,0
STARLINK-37720,2026-110F,2026-06-27T06:00:02.000160,15.33452160,.00016871,97.2843,14.4882,88.6523,121.3003,0,U,69129,999,596,-.22967256E-3,-.7484E-4,0
STARLINK-37533,2026-110G,2026-06-27T06:35:20.657760,15.33432424,.00017234,97.2846,14.5214,91.7957,268.3483,0,U,69130,999,715,.68508786E-3,.22099E-3,0
STARLINK-37530,2026-110H,2026-06-27T01:49:29.725536,15.33442024,.00016308,97.2836,14.3329,94.1867,265.9562,0,U,69131,999,712,.39986195E-3,.12855E-3,0
STARLINK-37660,2026-110J,2026-06-27T06:27:29.058048,15.33443251,.00021488,97.2848,14.5264,87.4589,272.6900,0,U,69132,999,715,.59039549E-3,.19033E-3,0
STARLINK-37633,2026-110K,2026-06-27T06:23:34.215072,15.33452328,.0002009,97.2846,14.5309,100.4280,259.7189,0,U,69133,999,715,.396819E-3,.12761E-3,0
STARLINK-37361,2026-110L,2026-06-27T06:19:39.150912,15.33433212,.00019132,97.2846,14.5368,94.2796,265.8665,0,U,69134,999,715,.34022121E-3,.10921E-3,0
STARLINK-37372,2026-110M,2026-06-27T06:15:44.434944,15.33438965,.00019083,97.2851,14.5386,90.6370,269.5091,0,U,69135,999,715,.61421151E-3,.19803E-3,0
STARLINK-37531,2026-110N,2026-06-27T06:11:50.768736,15.33427885,.00016934,97.2841,14.5435,94.6141,265.5295,0,U,69136,999,715,.63145749E-3,.20355E-3,0
STARLINK-37662,2026-110P,2026-06-27T02:59:59.199072,15.33458663,.00018502,97.2844,14.4177,104.9201,255.2247,0,U,69137,999,713,.39956276E-3,.12852E-3,0
STARLINK-37658,2026-110Q,2026-06-27T02:56:03.607008,15.33436917,.0001672,97.2846,14.4193,99.5804,260.5628,0,U,69138,999,713,.31267007E-3,.1003E-3,0
STARLINK-37659,2026-110R,2026-06-27T02:52:08.867712,15.33435023,.00016178,97.2843,14.4227,88.3788,271.7640,0,U,69139,999,713,.4675943E-3,.15046E-3,0
STARLINK-37653,2026-110S,2026-06-27T02:48:13.820832,15.33442404,.00024848,97.2831,14.4258,88.2833,271.8694,0,U,69140,999,713,.62102726E-3,.20027E-3,0
STARLINK-37654,2026-110T,2026-06-27T02:44:18.189024,15.33438338,.00014424,97.2845,14.4311,96.5571,263.5836,0,U,69141,999,713,.49870194E-3,.16056E-3,0
STARLINK-37655,2026-110U,2026-06-27T02:40:23.755584,15.33437577,.00014804,97.2846,14.4356,105.5361,254.6045,0,U,69142,999,713,.28875263E-3,.9256E-4,0
STARLINK-37636,2026-110V,2026-06-27T02:36:28.825344,15.33448219,.00015555,97.2844,14.4413,90.1201,270.0220,0,U,69143,999,713,.65404552E-3,.21101E-3,0
STARLINK-37638,2026-110W,2026-06-27T02:32:34.131840,15.33442044,.00025657,97.2829,14.4441,93.6757,266.4779,0,U,69144,999,713,.69593595E-3,.22459E-3,0
STARLINK-37657,2026-110X,2026-06-27T02:28:38.833536,15.33447424,.00013217,97.2848,14.4466,112.9373,247.2010,0,U,69145,999,713,.29599847E-3,.9494E-4,0
STARLINK-37639,2026-110Y,2026-06-27T02:24:43.767648,15.33461667,.00007564,97.2856,14.4530,123.3571,236.7744,0,U,69146,999,713,.90048204E-3,.29123E-3,0
STARLINK-37661,2026-110Z,2026-06-27T06:00:02.000160,15.33449146,.00018355,97.2842,14.6025,100.4821,19.4703,0,U,69147,999,591,-.80279186E-3,-.25908E-3,0
STARLINK-37395,2026-111A,2026-06-27T06:00:02.000160,15.41962932,.00007579,53.1600,103.9410,104.1186,306.3223,0,U,69148,999,607,-.56882139E-1,-.2207651E-1,0
STARLINK-37346,2026-111B,2026-06-27T06:00:02.000160,15.44205331,.00005797,53.1591,104.7228,119.1823,264.4372,0,U,69149,999,607,-.55425632E-1,-.2309279E-1,0
STARLINK-37332,2026-111C,2026-06-27T01:54:24.454080,15.49324966,.00010206,53.1585,105.8444,57.9316,302.1792,0,U,69150,999,577,.77270061E-3,.42786E-3,0
STARLINK-37297,2026-111D,2026-06-27T06:00:02.000160,15.34352117,.00018005,53.1589,104.5233,108.9560,8.0674,0,U,69151,999,607,.21222484E-2,.71908E-3,0
STARLINK-37317,2026-111E,2026-06-27T02:18:58.626432,15.34378568,.00013219,53.1596,105.2124,85.0551,275.0602,0,U,69152,999,578,.79785981E-3,.26658E-3,0
STARLINK-37374,2026-111F,2026-06-27T05:22:47.657280,15.49329221,.00010225,53.1583,105.3315,104.6145,255.4977,0,U,69153,999,579,.93110396E-3,.51716E-3,0
STARLINK-37235,2026-111G,2026-06-27T01:14:30.031008,15.51345019,.00269045,53.1593,106.3936,298.7453,61.0855,0,U,69154,999,576,.27854846E-1,.1907949E-1,0
STARLINK-37329,2026-111H,2026-06-27T00:39:07.279776,15.34373895,.00009502,53.1594,105.4896,90.1522,269.9589,0,U,69155,999,577,.79022747E-3,.26395E-3,0
STARLINK-37345,2026-111J,2026-06-27T02:06:10.191744,15.33549889,.00011023,53.1590,105.1526,100.7238,259.3888,0,U,69156,999,578,.11990533E-2,.39269E-3,0
STARLINK-37353,2026-111K,2026-06-27T02:03:50.002560,15.34372375,.00007725,53.1591,105.1408,50.1649,309.9422,0,U,69157,999,578,.84134676E-3,.28132E-3,0
STARLINK-37363,2026-111L,2026-06-27T06:00:02.000160,15.34365379,.00004097,53.1599,104.3544,93.0309,105.1692,0,U,69158,999,608,.25993827E-2,.8839E-3,0
STARLINK-37343,2026-111M,2026-06-27T02:17:14.207712,15.49348153,.00010551,53.1590,105.9471,79.7809,280.3319,0,U,69159,999,577,.10016608E-2,.55735E-3,0
STARLINK-37328,2026-111N,2026-06-27T01:50:48.702048,15.33565525,.0000543,53.1602,105.0859,79.4033,280.7030,0,U,69160,999,578,.75623102E-3,.24593E-3,0
STARLINK-37311,2026-111P,2026-06-27T01:51:41.570208,15.34408843,.00010205,53.1585,105.0899,67.6797,292.4313,0,U,69161,999,578,.12361068E-2,.41631E-3,0
STARLINK-36286,2026-111Q,2026-06-27T06:00:02.000160,15.37059247,.00010402,53.1609,104.2583,116.5130,134.4081,0,U,69162,999,602,-.72373804E-1,-.2367679E-1,0
STARLINK-37196,2026-111R,2026-06-27T03:19:48.139104,15.32798830,.00091461,53.1592,104.7585,112.6135,247.5835,0,U,69163,999,579,-.41626749E-1,-.1215174E-1,0
STARLINK-36288,2026-111S,2026-06-27T06:00:02.000160,15.34336155,.00013704,53.1603,104.2239,97.8183,170.2932,0,U,69164,999,586,.20824713E-2,.70503E-3,0
STARLINK-37445,2026-111T,2026-06-27T06:00:02.000160,15.39045870,.00018748,53.1607,104.2798,111.3320,129.3658,0,U,69165,999,608,-.12695677E+0,-.4361701E-1,0
STARLINK-37491,2026-111U,2026-06-27T06:00:02.000160,15.35354767,.00008161,53.1606,104.2441,42.6341,213.2535,0,U,69166,999,608,.19872791E-2,.6948E-3,0
STARLINK-37474,2026-111V,2026-06-27T01:33:31.887360,15.34385457,.00012245,53.1606,105.0093,78.4476,281.6664,0,U,69167,999,578,.86325104E-3,.28889E-3,0
STARLINK-37469,2026-111W,2026-06-27T01:08:37.108608,15.49322086,.00009708,53.1586,106.3613,118.9157,241.1949,0,U,69168,999,576,.58076412E-3,.31999E-3,0
STARLINK-37515,2026-111X,2026-06-27T06:00:02.000160,15.35376041,.00013521,53.1608,104.1705,96.4630,196.7548,0,U,69169,999,608,.19061916E-2,.6665E-3,0
STARLINK-37437,2026-111Y,2026-06-27T06:00:02.000160,15.35356780,.00011853,53.1614,104.1076,82.0173,240.9217,0,U,69170,999,608,.18894124E-2,.66013E-3,0
STARLINK-37392,2026-111Z,2026-06-27T06:00:02.000160,15.35234691,.0001902,53.1602,103.9635,96.4173,299.1749,0,U,69171,999,608,-.40149719E-1,-.1277111E-1,0
